satname,norad_id,inclination_deg,eccentricity,mean_motion_rev_per_day,perigee_km,apogee_km,l1,l2
STARLINK-1548,46054,53.1589,0.0001384,15.31701,469.78913011572877,471.6848984428816,1 46054U 20055AD  26139.40189659 -.00001139  00000+0 -24928-4 0  9998,2 46054  53.1589 145.2313 0001384  90.4950 269.6210 15.31701000319900
STARLINK-1554,46055,53.1595,0.000137,15.31704205,469.78916593706435,471.6657547992063,1 46055U 20055AE  26139.70949739  .00000554  00000+0  29615-4 0  9991,2 46055  53.1595 143.7448 0001370  96.8456 263.2702 15.31704205319957
STARLINK-1564,46058,53.1609,0.0001241,15.30190456,474.3930617028518,476.0940707593909,1 46058U 20055AH  26139.74543213 -.00000243  00000+0  39231-5 0  9997,2 46058  53.1609 144.3203 0001241  90.6223 269.4920 15.30190456319948
STARLINK-1570,46059,53.1602,0.0001469,15.31698102,469.73955220899006,471.75175393246263,1 46059U 20055AJ  26139.73744504  .00000521  00000+0  28558-4 0  9990,2 46059  53.1602 143.4967 0001469  92.0291 268.0878 15.31698102319918
STARLINK-1572,46060,53.1595,0.0001317,15.30190134,474.3419373280485,476.1471180224389,1 46060U 20055AK  26139.72643010 -.00000516  00000+0 -53082-5 0  9998,2 46060  53.1595 144.1568 0001317  86.9943 273.1209 15.30190134319910
STARLINK-1573,46061,53.1591,0.0001279,15.31695529,469.8773500040943,471.6292961487379,1 46061U 20055AL  26139.72346025  .00000117  00000+0  15525-4 0  9999,2 46061  53.1591 143.5285 0001279  97.2755 262.8392 15.31695529319950
STARLINK-1577,46063,53.1595,0.0001233,15.31700075,469.89530514861326,471.58423816050345,1 46063U 20055AN  26139.29467454  .00000100  00000+0  14983-4 0  9992,2 46063  53.1595 145.5216 0001233  81.7336 278.3805 15.31700075319881
STARLINK-1583,46064,53.1604,0.0001479,15.30193524,474.22079202531586,476.24801928710895,1 46064U 20055AP  26139.29868091 -.00000250  00000+0  37041-5 0  9993,2 46064  53.1604 145.8920 0001479  90.3796 269.7375 15.30193524319875
STARLINK-1536,46070,53.16,0.0001307,15.3170058,469.84311827907095,471.63341427367595,1 46070U 20055AV  26139.70150960  .00001068  00000+0  46181-4 0  9996,2 46070  53.1600 131.5135 0001307  90.8847 269.2305 15.31700580320114
STARLINK-1542,46073,53.1622,0.0001235,15.31703025,469.8851426776282,471.57681306816266,1 46073U 20055AY  26139.39963548  .00000276  00000+0  20664-4 0  9996,2 46073  53.1622 135.8844 0001235  81.8663 278.2478 15.31703025320018
STARLINK-1549,46074,53.0506,0.0003909,15.27773121,479.78907158485345,485.1526948279443,1 46074U 20055AZ  26139.25314573  .00025627  00000+0  94152-3 0  9999,2 46074  53.0506 133.5173 0003909  44.1630 315.9679 15.27773121320027
STARLINK-1551,46075,53.1614,0.000129,15.3019345,474.35054166860664,476.1187115482726,1 46075U 20055BA  26139.67105821  .00000520  00000+0  29672-4 0  9991,2 46075  53.1614 131.3623 0001290  94.8442 265.2706 15.30193450320101
STARLINK-1552,46076,53.1602,0.0001592,15.31708937,469.62301764676795,471.80369159967995,1 46076U 20055BB  26139.67848495  .00000388  00000+0  24284-4 0  9999,2 46076  53.1602 131.1382 0001592  87.8668 272.2515 15.31708937320093
STARLINK-1559,46077,53.0239,0.0003175,15.36328133,454.80826789486673,459.1485661846873,1 46077U 20055BC  26139.61515386  .00046976  00000+0  13095-2 0  9993,2 46077  53.0239 101.9738 0003175  40.7877 319.3362 15.36328133320463
STARLINK-1566,46079,53.1612,0.0001434,15.31701222,469.7542240709072,471.718480948407,1 46079U 20055BE  26139.68312481  .00000790  00000+0  37212-4 0  9996,2 46079  53.1612 130.9699 0001434  94.4156 265.7010 15.31701222320116
STARLINK-1568,46080,53.0592,0.0004555,15.52364758,406.7318710369209,412.9157033140382,1 46080U 20055BF  26139.96120438  .00036438  00000+0  59219-3 0  9996,2 46080  53.0592  51.3284 0004555  40.2647 319.8699 15.52364758321242
STARLINK-1578,46082,53.1599,0.0001553,15.31695455,469.6899109662145,471.81717636907797,1 46082U 20055BH  26139.68751824  .00000326  00000+0  22293-4 0  9996,2 46082  53.1599 131.4684 0001553  80.9371 279.1806 15.31695455320106
STARLINK-1579,46083,53.1612,0.0001278,15.31708078,469.84063183125454,471.591198636389,1 46083U 20055BJ  26139.67381226  .00000936  00000+0  41902-4 0  9996,2 46083  53.1612 131.0680 0001278  83.5018 276.6129 15.31708078320102
STARLINK-1622,46128,53.017,0.0005967,15.78252656,331.38530850632924,339.39723314473304,1 46128U 20057M   26139.62823809  .00106845  00000+0  60548-3 0  9993,2 46128  53.0170 232.6817 0005967   0.5545 359.5481 15.78252656318514
STARLINK-1623,46129,53.0437,0.0002699,15.70427588,355.85607479443115,359.4920656101258,1 46129U 20057N   26138.66056153  .00068224  00000+0  54671-3 0  9995,2 46129  53.0437 274.3870 0002699 324.5510  35.5327 15.70427588317859
STARLINK-1624,46130,53.0271,0.0012932,16.06757039,247.1755976957611,264.33349479096523,1 46130U 20057P   26139.78018111  .00969222  52261-3  12283-2 0  9993,2 46130  53.0271 234.3145 0012932 328.2690  31.7561 16.06757039319755
STARLINK-1596,46141,53.0371,0.0004974,15.5611179,395.55180790285976,402.2936269097345,1 46141U 20057AA  26139.71296122  .00077994  00000+0  10925-2 0  9995,2 46141  53.0371 249.6125 0004974 325.6236  34.4452 15.56111790318298
STARLINK-1597,46142,53.0431,0.0001584,15.70273177,357.0486126850674,359.18265751986655,1 46142U 20057AB  26139.84297970  .00085640  00000+0  68811-3 0  9997,2 46142  53.0431 308.2434 0001584  48.3018 311.8134 15.70273177317474
STARLINK-1606,46144,53.0391,0.0005532,15.82044384,320.9519990885956,328.367973674327,1 46144U 20057AD  26140.00002315  .00134080  00000+0  63629-3 0  9991,2 46144  53.0391 262.4080 0005532 302.6848 104.2160 15.82044384  5941
STARLINK-1608,46146,53.1596,0.0001168,15.34114011,462.7542823943486,464.3525012698801,1 46146U 20057AF  26139.83983002  .00049787  00000+0  14883-2 0  9999,2 46146  53.1596 338.1419 0001168 226.3367 133.7538 15.34114011317086
STARLINK-1667,46155,53.0165,0.0007234,15.81780707,320.5555111741314,330.2541955275601,1 46155U 20057AQ  26140.00002315  .00161591  00000+0  77261-3 0  9997,2 46155  53.0165 230.6385 0007234 358.6131  34.8880 15.81780707  5957
STARLINK-1545,46156,53.0407,0.0003357,15.76921905,336.91273358229864,341.42273197988834,1 46156U 20057AR  26139.74133347  .00117800  00000+0  70750-3 0  9997,2 46156  53.0407 267.3931 0003357 274.7555  85.3081 15.76921905319291
STARLINK-1595,46159,53.0436,0.0001009,15.68547958,362.37393640399205,363.7343087725303,1 46159U 20057AU  26139.91494943  .00074383  00000+0  64329-3 0  9994,2 46159  53.0436 310.3707 0001009  15.4037 344.7010 15.68547958318716
